[Satellite]
VERSION=1.1
NAME=FREGAT R/B
NICKNAME=FREGAT R/B
TLE1=1 45359U 20018B   20077.61714874 -.00000063  00000-0  00000+0 0  9990
TLE2=2 45359  64.7796  31.7271 0083970 124.0426 104.7045  2.08953742    16
STATUS=0
